[{"OBJECT_NAME":"PROBA-V","OBJECT_ID":"2013-021A","EPOCH":"2026-03-09T22:43:07.567104","MEAN_MOTION":14.2357369,"ECCENTRICITY":0.00052918,"INCLINATION":98.3507,"RA_OF_ASC_NODE":52.496,"ARG_OF_PERICENTER":69.2213,"MEAN_ANOMALY":290.9533,"EPHEMERIS_TYPE":0,"CLASSIFICATION_TYPE":"U","NORAD_CAT_ID":39159,"ELEMENT_SET_NO":999,"REV_AT_EPOCH":66699,"BSTAR":6.8440241e-5,"MEAN_MOTION_DOT":1.15e-6,"MEAN_MOTION_DDOT":0},{"OBJECT_NAME":"THOR ABLESTAR DEB","OBJECT_ID":"1961-015KM","EPOCH":"2026-03-07T08:53:46.266432","MEAN_MOTION":13.95131099,"ECCENTRICITY":0.01472668,"INCLINATION":66.6004,"RA_OF_ASC_NODE":38.7797,"ARG_OF_PERICENTER":275.3522,"MEAN_ANOMALY":83.0771,"EPHEMERIS_TYPE":0,"CLASSIFICATION_TYPE":"U","NORAD_CAT_ID":6747,"ELEMENT_SET_NO":999,"REV_AT_EPOCH":27737,"BSTAR":0.00044039001,"MEAN_MOTION_DOT":5.72e-6,"MEAN_MOTION_DDOT":0}]
